H-2A R/B                
1 28932U 06002B   26083.38854308  .00009320  00000+0  46267-3 0  9991
2 28932  98.2441 231.6820 0052301 190.5744 169.4392 15.16735733 96669
RESURS-DK 1             
1 29228U 06021A   26083.41284976  .00002549  00000+0  15075-3 0  9992
2 29228  69.9339 198.9368 0000756  83.2080 276.9172 15.12839433 89759
CZ-4B R/B               
1 29507U 06046C   26083.38482124  .00004597  00000+0  23281-3 0  9993
2 29507  97.5564 128.2537 0032309 214.2224 145.6927 15.17049924 62276
CZ-2C R/B               
1 31114U 07010B   26083.30909049  .00000132  00000+0  79936-4 0  9994
2 31114  98.3994 195.8562 0057928 251.2653 108.2233 14.20251257981797
COSMO-SKYMED 1          
1 31598U 07023A   26083.50732749  .00002617  00000+0  23479-3 0  9997
2 31598  97.8880 274.6602 0001040  88.4618 271.6722 14.96641926 17121
COSMOS 2428             
1 31792U 07029A   26083.54325897 -.00000015  00000+0  17560-4 0  9991
2 31792  70.9441 172.1690 0009633 261.8574  98.1454 14.12948013966194
SL-16 R/B               
1 31793U 07029B   26083.40091775  .00000207  00000+0  13199-3 0  9997
2 31793  70.9755 141.4622 0002529 276.9613  93.8580 14.14841997967452
KORONAS-FOTON           
1 33504U 09003A   26083.54551424  .00013406  00000+0  29547-3 0  9999
2 33504  82.4279 260.4257 0011812 101.5206 258.7369 15.43705087948037
CZ-2C R/B               
1 37731U 11030B   26083.41587800  .00001514  00000+0  19688-3 0  9993
2 37731  97.8570  40.3870 0051295 303.5053 171.5301 14.81272777792273
H-2A R/B                
1 38341U 12025E   26083.38413876  .00003379  00000+0  30770-3 0  9999
2 38341  98.4757  51.6101 0042784 264.4745  95.1592 14.95266917750410
SHIJIAN-16 (SJ-16)      
1 39358U 13057A   26083.51135017  .00000899  00000+0  90458-4 0  9991
2 39358  74.9728 157.0309 0015203  74.1427 286.1436 14.92405904673710
SL-4 R/B                
1 39679U 14021B   26083.49475435  .00015939  00000+0  34670-3 0  9991
2 39679  51.6056 265.0241 0096145 156.9179 203.6169 15.39670175658552
